0 SL-12 R/B(2)
1 29233U 06022D   13282.24332019 -.00000226  00000-0  10000-3 0  8780
2 29233 006.2956 057.6012 0047370 281.9907 077.5317 01.01005610 26975
0 SL-12 R/B(2)
1 29233U 06022D   13285.21334949 -.00000192  00000-0  10000-3 0  8797
2 29233 006.3013 057.5690 0047651 281.7530 077.7726 01.01004505 27006
0 SL-12 R/B(2)
1 29233U 06022D   13288.18338453 -.00000144  00000-0  10000-3 0  8809
2 29233 006.3071 057.5368 0047686 281.9852 077.5353 01.01003512 27033
0 SL-12 R/B(2)
1 29233U 06022D   13291.15334073 -.00000086  00000-0  10000-3 0  8810
2 29233 006.3129 057.5055 0047840 281.6528 077.8206 01.01002756 27061
0 SL-12 R/B(2)
1 29233U 06022D   13294.12331257 -.00000026  00000-0  10000-3 0  8826
2 29233 006.3186 057.4737 0047731 281.9418 077.4910 01.01002315 27092
